CTC2_L_00170016-03
1 10062U 26766UK  26075.70042824  .00000000  00000+0  00000-0 0  9992
2 10062  70.0000 180.0000 0000000   0.0000   0.0000 14.89338871    10
CTC2_L_00170016-04
1 10063U 23627EB  26075.70042824  .00000000  00000+0  00000-0 0  9996
2 10063  70.0000 180.0000 0000000   0.0000  90.0000 14.89338871    10
CTC2_L_00170017-01
1 10064U 26624GL  26075.70042824  .00000000  00000+0  00000-0 0  9997
2 10064  70.0000 192.0000 0000000   0.0000 192.0000 14.89338871    17
CTC2_L_00170017-02
1 10065U 22471IF  26075.70042824  .00000000  00000+0  00000-0 0  9994
2 10065  70.0000 192.0000 0000000   0.0000 282.0000 14.89338871    18
CTC2_L_00170017-03
1 10066U 26526HQ  26075.70042824  .00000000  00000+0  00000-0 0  9990
2 10066  70.0000 192.0000 0000000   0.0000  12.0000 14.89338871    10
CTC2_L_00170017-04
1 10067U 26993UW  26075.70042824  .00000000  00000+0  00000-0 0  9999
2 10067  70.0000 192.0000 0000000   0.0000 102.0000 14.89338871    11
CTC2_L_00170018-01
1 10068U 24753XI  26075.70042824  .00000000  00000+0  00000-0 0  9992
2 10068  70.0000 204.0000 0000000   0.0000 204.0000 14.89338871    19
CTC2_L_00170018-02
1 10069U 22969CX  26075.70042824  .00000000  00000+0  00000-0 0  9990
2 10069  70.0000 204.0000 0000000   0.0000 294.0000 14.89338871    19
CTC2_L_00170018-03
1 10070U 23289XU  26075.70042824  .00000000  00000+0  00000-0 0  9998
2 10070  70.0000 204.0000 0000000   0.0000  24.0000 14.89338871    12
CTC2_L_00170018-04
1 10071U 22737GQ  26075.70042824  .00000000  00000+0  00000-0 0  9996
2 10071  70.0000 204.0000 0000000   0.0000 114.0000 14.89338871    13
CTC2_L_00170019-01
1 10072U 22322DK  26075.70042824  .00000000  00000+0  00000-0 0  9997
2 10072  70.0000 216.0000 0000000   0.0000 216.0000 14.89338871    10
CTC2_L_00170019-02
1 10073U 23288NQ  26075.70042824  .00000000  00000+0  00000-0 0  9990
2 10073  70.0000 216.0000 0000000   0.0000 306.0000 14.89338871    11
CTC2_L_00170019-03
1 10074U 25449RR  26075.70042824  .00000000  00000+0  00000-0 0  9992
2 10074  70.0000 216.0000 0000000   0.0000  36.0000 14.89338871    12
CTC2_L_00170019-04
1 10075U 23592TP  26075.70042824  .00000000  00000+0  00000-0 0  9990
2 10075  70.0000 216.0000 0000000   0.0000 126.0000 14.89338871    13
CTC2_L_00170020-01
1 10076U 25259PU  26075.70042824  .00000000  00000+0  00000-0 0  9993
2 10076  70.0000 228.0000 0000000   0.0000 228.0000 14.89338871    10
CTC2_L_00170020-02
1 10077U 25033CC  26075.70042824  .00000000  00000+0  00000-0 0  9994
2 10077  70.0000 228.0000 0000000   0.0000 318.0000 14.89338871    11
CTC2_L_00170020-03
1 10078U 23726AE  26075.70042824  .00000000  00000+0  00000-0 0  9992
2 10078  70.0000 228.0000 0000000   0.0000  48.0000 14.89338871    12
CTC2_L_00170020-04
1 10079U 26314TL  26075.70042824  .00000000  00000+0  00000-0 0  9999
2 10079  70.0000 228.0000 0000000   0.0000 138.0000 14.89338871    13
CTC2_L_00170021-01
1 10080U 23365WK  26075.70042824  .00000000  00000+0  00000-0 0  9994
2 10080  70.0000 240.0000 0000000   0.0000 240.0000 14.89338871    13
CTC2_L_00170021-02
1 10081U 25768IC  26075.70042824  .00000000  00000+0  00000-0 0  9994
2 10081  70.0000 240.0000 0000000   0.0000 330.0000 14.89338871    14
CTC2_L_00170021-03
1 10082U 25844PW  26075.70042824  .00000000  00000+0  00000-0 0  9990
2 10082  70.0000 240.0000 0000000   0.0000  60.0000 14.89338871    15
CTC2_L_00170021-04
1 10083U 24866PM  26075.70042824  .00000000  00000+0  00000-0 0  9994
2 10083  70.0000 240.0000 0000000   0.0000 150.0000 14.89338871    16
CTC2_L_00170022-01
1 10084U 25811UM  26075.70042824  .00000000  00000+0  00000-0 0  9996
2 10084  70.0000 252.0000 0000000   0.0000 252.0000 14.89338871    13
CTC2_L_00170022-02
1 10085U 24561DS  26075.70042824  .00000000  00000+0  00000-0 0  9998
2 10085  70.0000 252.0000 0000000   0.0000 342.0000 14.89338871    14
CTC2_L_00170022-03
1 10086U 26322BE  26075.70042824  .00000000  00000+0  00000-0 0  9996
2 10086  70.0000 252.0000 0000000   0.0000  72.0000 14.89338871    15
CTC2_L_00170022-04
1 10087U 22008EH  26075.70042824  .00000000  00000+0  00000-0 0  9994
2 10087  70.0000 252.0000 0000000   0.0000 162.0000 14.89338871    16
CTC2_L_00170023-01
1 10088U 26969ID  26075.70042824  .00000000  00000+0  00000-0 0  9995
2 10088  70.0000 264.0000 0000000   0.0000 264.0000 14.89338871    13
CTC2_L_00170023-02
1 10089U 25002PJ  26075.70042824  .00000000  00000+0  00000-0 0  9993
2 10089  70.0000 264.0000 0000000   0.0000 354.0000 14.89338871    14
CTC2_L_00170023-03
1 10090U 25969SZ  26075.70042824  .00000000  00000+0  00000-0 0  9997
2 10090  70.0000 264.0000 0000000   0.0000  84.0000 14.89338871    16
CTC2_L_00170023-04
1 10091U 26907LM  26075.70042824  .00000000  00000+0  00000-0 0  9991
2 10091  70.0000 264.0000 0000000   0.0000 174.0000 14.89338871    17
CTC2_L_00170024-01
1 10092U 23139LT  26075.70042824  .00000000  00000+0  00000-0 0  9996
2 10092  70.0000 276.0000 0000000   0.0000 276.0000 14.89338871    14
CTC2_L_00170024-02
1 10093U 23833LE  26075.70042824  .00000000  00000+0  00000-0 0  9998
2 10093  70.0000 276.0000 0000000   0.0000   6.0000 14.89338871    16
CTC2_L_00170024-03
1 10094U 25993NR  26075.70042824  .00000000  00000+0  00000-0 0  9998
2 10094  70.0000 276.0000 0000000   0.0000  96.0000 14.89338871    16
CTC2_L_00170024-04
1 10095U 22661DU  26075.70042824  .00000000  00000+0  00000-0 0  9998
2 10095  70.0000 276.0000 0000000   0.0000 186.0000 14.89338871    17
CTC2_L_00170025-01
1 10096U 23626XD  26075.70042824  .00000000  00000+0  00000-0 0  9991
2 10096  70.0000 288.0000 0000000   0.0000 288.0000 14.89338871    14
CTC2_L_00170025-02
1 10097U 24821TT  26075.70042824  .00000000  00000+0  00000-0 0  9990
2 10097  70.0000 288.0000 0000000   0.0000  18.0000 14.89338871    16
CTC2_L_00170025-03
1 10098U 23259DX  26075.70042824  .00000000  00000+0  00000-0 0  9995
2 10098  70.0000 288.0000 0000000   0.0000 108.0000 14.89338871    17
CTC2_L_00170025-04
1 10099U 25112GX  26075.70042824  .00000000  00000+0  00000-0 0  9996
2 10099  70.0000 288.0000 0000000   0.0000 198.0000 14.89338871    17
CTC2_L_00170026-01
1 10100U 23593XO  26075.70042824  .00000000  00000+0  00000-0 0  9990
2 10100  70.0000 300.0000 0000000   0.0000 300.0000 14.89338871    10
CTC2_L_00170026-02
1 10101U 26342SO  26075.70042824  .00000000  00000+0  00000-0 0  9996
2 10101  70.0000 300.0000 0000000   0.0000  30.0000 14.89338871    11
CTC2_L_00170026-03
1 10102U 26453MT  26075.70042824  .00000000  00000+0  00000-0 0  9990
2 10102  70.0000 300.0000 0000000   0.0000 120.0000 14.89338871    12
CTC2_L_00170026-04
1 10103U 23559MK  26075.70042824  .00000000  00000+0  00000-0 0  9995
2 10103  70.0000 300.0000 0000000   0.0000 210.0000 14.89338871    13
CTC2_L_00170027-01
1 10104U 25454MK  26075.70042824  .00000000  00000+0  00000-0 0  9992
2 10104  70.0000 312.0000 0000000   0.0000 312.0000 14.89338871    10
CTC2_L_00170027-02
1 10105U 23607VF  26075.70042824  .00000000  00000+0  00000-0 0  9991
2 10105  70.0000 312.0000 0000000   0.0000  42.0000 14.89338871    11
CTC2_L_00170027-03
1 10106U 26884HV  26075.70042824  .00000000  00000+0  00000-0 0  9992
2 10106  70.0000 312.0000 0000000   0.0000 132.0000 14.89338871    12
CTC2_L_00170027-04
1 10107U 23378AC  26075.70042824  .00000000  00000+0  00000-0 0  9998
2 10107  70.0000 312.0000 0000000   0.0000 222.0000 14.89338871    13
CTC2_L_00170028-01
1 10108U 23474TN  26075.70042824  .00000000  00000+0  00000-0 0  9996
2 10108  70.0000 324.0000 0000000   0.0000 324.0000 14.89338871    10
CTC2_L_00170028-02
1 10109U 23826QB  26075.70042824  .00000000  00000+0  00000-0 0  9998
2 10109  70.0000 324.0000 0000000   0.0000  54.0000 14.89338871    11
CTC2_L_00170028-03
1 10110U 24726LW  26075.70042824  .00000000  00000+0  00000-0 0  9990
2 10110  70.0000 324.0000 0000000   0.0000 144.0000 14.89338871    13
CTC2_L_00170028-04
1 10111U 25048HS  26075.70042824  .00000000  00000+0  00000-0 0  9999
2 10111  70.0000 324.0000 0000000   0.0000 234.0000 14.89338871    14
CTC2_L_00170029-01
1 10112U 23278TE  26075.70042824  .00000000  00000+0  00000-0 0  9993
2 10112  70.0000 336.0000 0000000   0.0000 336.0000 14.89338871    11
CTC2_L_00170029-02
1 10113U 26047LG  26075.70042824  .00000000  00000+0  00000-0 0  9991
2 10113  70.0000 336.0000 0000000   0.0000  66.0000 14.89338871    12
CTC2_L_00170029-03
1 10114U 25040SO  26075.70042824  .00000000  00000+0  00000-0 0  9994
2 10114  70.0000 336.0000 0000000   0.0000 156.0000 14.89338871    13
CTC2_L_00170029-04
1 10115U 22758ZG  26075.70042824  .00000000  00000+0  00000-0 0  9998
2 10115  70.0000 336.0000 0000000   0.0000 246.0000 14.89338871    14
CTC2_L_00170030-01
1 10116U 22684QA  26075.70042824  .00000000  00000+0  00000-0 0  9997
2 10116  70.0000 348.0000 0000000   0.0000 348.0000 14.89338871    11
CTC2_L_00170030-02
1 10117U 25735PW  26075.70042824  .00000000  00000+0  00000-0 0  9998
2 10117  70.0000 348.0000 0000000   0.0000  78.0000 14.89338871    12
CTC2_L_00170030-03
1 10118U 26149WA  26075.70042824  .00000000  00000+0  00000-0 0  9999
2 10118  70.0000 348.0000 0000000   0.0000 168.0000 14.89338871    13
CTC2_L_00170030-04
1 10119U 24913BV  26075.70042824  .00000000  00000+0  00000-0 0  9997
2 10119  70.0000 348.0000 0000000   0.0000 258.0000 14.89338871    14
